IRIDIUM 159             
1 43578U 18061K   25174.80535274  .00000061  00000+0  14840-4 0  9993
2 43578  86.3981 206.4361 0002235  96.7082 263.4368 14.34217974362016
IRIDIUM 180             
1 43922U 19002A   25174.87461810  .00000013  00000+0 -23972-5 0  9998
2 43922  86.3987 143.3884 0002402  87.5069 272.6402 14.34217658337633
IRIDIUM 176             
1 43923U 19002B   25174.62933889  .00000674  00000+0  10302-3 0  9995
2 43923  86.6112 143.4834 0003229  84.3547 275.8038 14.72251367346498
IRIDIUM 168             
1 43924U 19002C   25174.65896935  .00000153  00000+0  47407-4 0  9998
2 43924  86.3989 143.5455 0002336  86.5780 273.5683 14.34217691337580
IRIDIUM 173             
1 43925U 19002D   25174.36721040  .00000038  00000+0  66113-5 0  9999
2 43925  86.3985 143.5711 0002468  86.8529 273.2949 14.34217899337528
IRIDIUM 169             
1 43926U 19002E   25174.76180614  .00000130  00000+0  36094-4 0  9997
2 43926  86.4249 174.9879 0003658  75.4952 284.6652 14.38609535338694
IRIDIUM 172             
1 43927U 19002F   25174.63994137  .00000097  00000+0  27722-4 0  9997
2 43927  86.3987 143.4641 0002359  93.2225 266.9241 14.34218304337578
IRIDIUM 175             
1 43928U 19002G   25174.89617230  .00000634  00000+0  96551-4 0  9995
2 43928  86.1504  95.5062 0002669  63.8101 296.3389 14.72249428346524
